1 02367U 63014S   10351.61667522  .00000002  00000-0  10000-3 0  9993
2 02367 087.5267 207.7652 0315498 266.4737 089.9924 08.69870115514768
1 02367U 63014S   10352.53665817 +.00000002 +00000-0 +10000-3 0  9990
2 02367 087.5260 207.6826 0315107 265.8132 090.6490 08.69870028514841
1 02367U 63014S   10353.11165176  .00000002  00000-0  10000-3 0  9998
2 02367 087.5255 207.6317 0313984 265.2230 091.2717 08.69871416514890
1 02367U 63014S   10353.57164148 +.00000002 +00000-0 +10000-3 0  9996
2 02367 087.5253 207.5912 0313855 264.7164 091.7717 08.69870434514934
1 02367U 63014S   10354.60662323  .00000002  00000-0  10000-3 0  9999
2 02367 087.5229 207.4976 0313503 263.8097 092.6813 08.69869675515024
1 02367U 63014S   10355.06661911  .00000002  00000-0  10000-3 0  9992
2 02367 087.5259 207.4578 0312238 263.2146 093.3238 08.69871553515069
1 02367U 63014S   10355.52660468 +.00000002 +00000-0 +10000-3 0  9999
2 02367 087.5252 207.4176 0311862 262.8377 093.6800 08.69870736515104
1 02367U 63014S   10356.10159712  .00000002  00000-0  10000-3 0  9999
2 02367 087.5262 207.3668 0310062 262.4105 094.1228 08.69869538515159
1 02367U 63014S   10356.56159507 +.00000002 +00000-0 +10000-3 0  9991
2 02367 087.5246 207.3253 0310156 262.0129 094.5429 08.69869767515192
1 02367U 63014S   10357.59657380  .00000002  00000-0  10000-3 0  9997
2 02367 087.5244 207.2333 0309685 260.9535 095.6149 08.69870447515289
1 02367U 63014S   10358.51655065 +.00000002 +00000-0 +10000-3 0  9998
2 02367 087.5245 207.1510 0309335 260.0759 096.4904 08.69871139515363
1 02367U 63014S   10359.09154404  .00000002  00000-0  10000-3 0  9993
2 02367 087.5249 207.0998 0309101 259.3941 097.2079 08.69872421515414
1 02367U 63014S   10360.12651865  .00000002  00000-0  10000-3 0  9992
2 02367 087.5256 207.0079 0308515 258.4347 098.1653 08.69872494515508
1 02367U 63014S   10360.58651144 +.00000002 +00000-0 +10000-3 0  9992
2 02367 087.5249 206.9670 0308090 258.0501 098.5529 08.69872079515540
1 02367U 63014S   10361.04650647 +.00000002 +00000-0 +10000-3 0  9991
2 02367 087.5252 206.9258 0307832 257.5791 099.0527 08.69873028515587
1 02367U 63014S   10362.08148247  .00000002  00000-0  10000-3 0  9994
2 02367 087.5250 206.8336 0307113 256.6410 099.9934 08.69873112515676
1 02367U 63014S   10362.54147614 +.00000002 +00000-0 +10000-3 0  9992
2 02367 087.5248 206.7926 0306987 256.1266 100.5201 08.69872674515712
1 02367U 63014S   10363.11646654  .00000002  00000-0  10000-3 0  9994
2 02367 087.5253 206.7415 0306565 255.6107 101.0526 08.69873099515764
1 02367U 63014S   10364.61143671  .00000002  00000-0  10000-3 0  9991
2 02367 087.5260 206.6070 0305391 254.1586 102.5178 08.69872859515895
1 02367U 63014S   10365.64642296  .00000002  00000-0  10000-3 0  9992
2 02367 087.5262 206.5148 0303958 253.2681 103.4405 08.69873638515984
1 02367U 63014S   11001.68140983  .00000002  00000-0  10000-3 0  9990
2 02367 087.5261 206.4217 0303437 252.3874 104.3549 08.69873233516076
1 02367U 63014S   11002.60139485 +.00000002 +00000-0 +10000-3 0  9998
2 02367 087.5252 206.3403 0302928 251.5353 105.2319 08.69873547516151
1 02367U 63014S   11003.63637568  .00000002  00000-0  10000-3 0  9997
2 02367 087.5255 206.2479 0302666 250.5321 106.2515 08.69873006516248
1 02367U 63014S   11004.55635884 +.00000002 +00000-0 +10000-3 0  9998
2 02367 087.5252 206.1657 0302487 249.5535 107.2560 08.69873366516327
1 02367U 63014S   11005.47634287  .00000002  00000-0  10000-3 0  9996
2 02367 087.5233 206.0843 0302028 248.7039 108.1240 08.69873187516408
1 02367U 63014S   11005.93633704 +.00000002 +00000-0 +10000-3 0  9990
2 02367 087.5226 206.0434 0301698 248.1585 108.6987 08.69874158516444
1 02367U 63014S   11007.08631297  .00000002  00000-0  10000-3 0  9993
2 02367 087.5244 205.9430 0300822 247.2569 109.6125 08.69874212516545
1 02367U 63014S   11007.54630770 +.00000002 +00000-0 +10000-3 0  9999
2 02367 087.5241 205.9020 0300451 246.8243 110.0608 08.69873971516586
1 02367U 63014S   11008.58129135  .00000002  00000-0  10000-3 0  9992
2 02367 087.5246 205.8090 0300220 245.8084 111.1096 08.69874000516670
1 02367U 63014S   11009.04128362 +.00000002 +00000-0 +10000-3 0  9995
2 02367 087.5257 205.7687 0299543 245.5065 111.4194 08.69873882516718
1 02367U 63014S   11009.96126973  .00000002  00000-0  10000-3 0  9992
2 02367 087.5260 205.6864 0299432 244.5589 112.4014 08.69874192516790
1 02367U 63014S   11010.53625886 +.00000002 +00000-0 +10000-3 0  9994
2 02367 087.5253 205.6353 0299023 244.0292 112.9410 08.69874317516847
1 02367U 63014S   11010.99625255  .00000002  00000-0  10000-3 0  9994
2 02367 087.5254 205.5942 0298943 243.5872 113.4005 08.69874279516886
1 02367U 63014S   11011.57124255 +.00000002 +00000-0 +10000-3 0  9993
2 02367 087.5254 205.5427 0298943 242.9957 114.0087 08.69874279516934
1 02367U 63014S   11012.03123428  .00000002  00000-0  10000-3 0  9996
2 02367 087.5257 205.5018 0298835 242.5569 114.4571 08.69874099516974
1 02367U 63014S   11012.60622518 +.00000002 +00000-0 +10000-3 0  9993
2 02367 087.5259 205.4504 0298580 242.0107 115.0194 08.69874067517025
1 02367U 63014S   11013.06621863  .00000002  00000-0  10000-3 0  9996
2 02367 087.5261 205.4099 0298401 241.6008 115.4439 08.69873970517066
1 02367U 63014S   11013.52621168 +.00000002 +00000-0 +10000-3 0  9995
2 02367 087.5257 205.3688 0298134 241.2052 115.8516 08.69873880517107
1 02367U 63014S   11014.56119623  .00000002  00000-0  10000-3 0  9998
2 02367 087.5266 205.2757 0297691 240.2875 116.8009 08.69873854517190
1 02367U 63014S   11015.59618101  .00000002  00000-0  10000-3 0  9997
2 02367 087.5253 205.1826 0297044 239.4287 117.6921 08.69874135517286
1 02367U 63014S   11016.51616665 +.00000002 +00000-0 +10000-3 0  9993
2 02367 087.5256 205.1010 0296865 238.5375 118.6139 08.69874260517362
1 02367U 63014S   11016.97615933  .00000002  00000-0  10000-3 0  9990
2 02367 087.5264 205.0604 0296949 238.0457 119.1213 08.69874181517404
1 02367U 63014S   11017.55114980 +.00000002 +00000-0 +10000-3 0  9991
2 02367 087.5261 205.0095 0296747 237.5309 119.6525 08.69874245517458
1 02367U 63014S   11018.01114270  .00000002  00000-0  10000-3 0  9995
2 02367 087.5269 204.9688 0296763 237.0537 120.1464 08.69874316517490
1 02367U 63014S   11018.47113506 +.00000002 +00000-0 +10000-3 0  9996
2 02367 087.5262 204.9281 0296480 236.6954 120.5179 08.69874591517533
1 02367U 63014S   11019.04612575  .00000002  00000-0  10000-3 0  9990
2 02367 087.5262 204.8773 0296428 236.1332 121.0980 08.69874545517585
1 02367U 63014S   11019.62111678 +.00000002 +00000-0 +10000-3 0  9992
2 02367 087.5259 204.8258 0296352 235.5754 121.6763 08.69874623517634
1 02367U 63014S   11020.42610372  .00000002  00000-0  10000-3 0  9997
2 02367 087.5256 204.7540 0296222 234.8017 122.4769 08.69874731517707
1 02367U 63014S   11020.88609628 +.00000002 +00000-0 +10000-3 0  9999
2 02367 087.5253 204.7129 0296145 234.3625 122.9320 08.69874801517741
1 02367U 63014S   11021.46108697  .00000002  00000-0  10000-3 0  9994
2 02367 087.5258 204.6619 0295952 233.8509 123.4648 08.69875192517797
1 02367U 63014S   11021.57608439 +.00000002 +00000-0 +10000-3 0  9995
2 02367 087.5252 204.6519 0296029 233.7224 123.5961 08.69875189517806
1 02367U 63014S   11022.49607064  .00000002  00000-0  10000-3 0  9990
2 02367 087.5264 204.5700 0295922 232.8862 124.4621 08.69874916517887
1 02367U 63014S   11022.49607064 +.00000002 +00000-0 +10000-3 0  9990
2 02367 087.5264 204.5700 0295922 232.8862 124.4621 08.69874916517887
1 02367U 63014S   11023.53105479  .00000002  00000-0  10000-3 0  9999
2 02367 087.5271 204.4784 0295656 231.9814 125.4009 08.69874925517978
1 02367U 63014S   11024.45104061 +.00000002 +00000-0 +10000-3 0  9997
2 02367 087.5278 204.3967 0295695 231.1061 126.3142 08.69875522518058
1 02367U 63014S   11025.02602943  .00000003  00000-0  10000-3 0  9994
2 02367 087.5276 204.3453 0295479 230.6005 126.8278 08.69875106518107
1 02367U 63014S   11025.48602443 +.00000003 +00000-0 +10000-3 0  9999
2 02367 087.5282 204.3044 0295515 230.1052 127.3544 08.69875579518148
1 02367U 63014S   11026.40600789  .00000003  00000-0  10000-3 0  9993
2 02367 087.5277 204.2219 0295285 229.3461 128.1261 08.69874822518227
1 02367U 63014S   11027.44099697  .00000003  00000-0  10000-3 0  9998
2 02367 087.5282 204.1295 0295163 228.4669 129.0565 08.69874975518317
1 02367U 63014S   11027.90098884 +.00000003 +00000-0 +10000-3 0  9996
2 02367 087.5288 204.0888 0295522 227.9627 129.5723 08.69874422518359
1 02367U 63014S   11028.93597477  .00000003  00000-0  10000-3 0  9992
2 02367 087.5307 203.9970 0295551 226.9610 130.6169 08.69874538518449
1 02367U 63014S   11029.39596768 +.00000003 +00000-0 +10000-3 0  9995
2 02367 087.5300 203.9558 0295795 226.4880 131.1122 08.69875004518486
1 02367U 63014S   11029.97095705  .00000003  00000-0  10000-3 0  9994
2 02367 087.5315 203.9051 0295802 225.9366 131.6723 08.69874311518530
1 02367U 63014S   11030.54595140 +.00000003 +00000-0 +10000-3 0  9997
2 02367 087.5317 203.8540 0295756 225.5190 132.1262 08.69874791518584
1 02367U 63014S   11031.81092776 +.00000003 +00000-0 +10000-3 0  9995
2 02367 087.5322 203.7418 0295841 224.2943 133.3900 08.69875243518697
1 02367U 63014S   11032.38591944 +.00000003 +00000-0 +10000-3 0  9999
2 02367 087.5324 203.6910 0295298 223.9136 133.7905 08.69875652518740
1 02367U 63014S   11032.96091118  .00000003  00000-0  10000-3 0  9991
2 02367 087.5312 203.6396 0295449 223.4390 134.2828 08.69875111518795
1 02367U 63014S   11033.99589765  .00000003  00000-0  10000-3 0  9995
2 02367 087.5312 203.5476 0295406 222.4497 135.3114 08.69874606518881
1 02367U 63014S   11034.57089201 +.00000003 +00000-0 +10000-3 0  9990
2 02367 087.5305 203.4965 0295482 221.9016 135.8941 08.69874801518936
1 02367U 63014S   11035.03088420  .00000003  00000-0  10000-3 0  9994
2 02367 087.5318 203.4558 0295464 221.5827 136.2295 08.69875618518972
1 02367U 63014S   11035.37587686 +.00000003 +00000-0 +10000-3 0  9999
2 02367 087.5318 203.4249 0295643 221.2599 136.5668 08.69876217519009
